{
    "CCSDS_OMM_VERS": "3.0",
    "COMMENT": "GENERATED VIA SPACE-TRACK.ORG API",
    "CREATION_DATE": "2025-05-22T17:14:14",
    "ORIGINATOR": "18 SPCS",
    "OBJECT_NAME": "BEIDOU 3M3",
    "OBJECT_ID": "2018-003A",
    "CENTER_NAME": "EARTH",
    "REF_FRAME": "TEME",
    "TIME_SYSTEM": "UTC",
    "MEAN_ELEMENT_THEORY": "SGP4",
    "EPOCH": "2025-05-21T09:02:33.334944",
    "MEAN_MOTION": "1.86232411",
    "ECCENTRICITY": "0.00048960",
    "INCLINATION": "54.6731",
    "RA_OF_ASC_NODE": "315.9433",
    "ARG_OF_PERICENTER": "80.3749",
    "MEAN_ANOMALY": "279.6804",
    "EPHEMERIS_TYPE": "0",
    "CLASSIFICATION_TYPE": "U",
    "NORAD_CAT_ID": "43107",
    "ELEMENT_SET_NO": "999",
    "REV_AT_EPOCH": "5005",
    "BSTAR": "0.00000000000000",
    "MEAN_MOTION_DOT": "-0.00000048",
    "MEAN_MOTION_DDOT": "0.0000000000000",
    "SEMIMAJOR_AXIS": "27906.048",
    "PERIOD": "773.227",
    "APOAPSIS": "21541.575",
    "PERIAPSIS": "21514.250",
    "OBJECT_TYPE": "PAYLOAD",
    "RCS_SIZE": "LARGE",
    "COUNTRY_CODE": "PRC",
    "LAUNCH_DATE": "2018-01-11",
    "SITE": "XSC",
    "DECAY_DATE": null,
    "FILE": "4736220",
    "GP_ID": "288144416",
    "TLE_LINE0": "0 BEIDOU 3M3",
    "TLE_LINE1": "1 43107U 18003A   25141.37677471 -.00000048  00000-0  00000-0 0  9995",
    "TLE_LINE2": "2 43107  54.6731 315.9433 0004896  80.3749 279.6804  1.86232411 50053"
}